     2.100          NAVIGATION                              RINEX VERSION / TYPE
fic2rin                                 12/26/2014 00:17:01 PGM / RUN BY / DATE
                                                            END OF HEADER
 5 14 12 25 18  0  0.0 -.301510561258D-03  .488853402203D-11  .000000000000D+00
     .460000000000D+02  .448437500000D+02  .534129391490D-08  .213486865723D+01
     .237114727497D-05  .402946956456D-02  .726617872715D-05  .515373467064D+04
     .410400000000D+06 -.614672899246D-07  .186345249022D+01  .353902578354D-07
     .946286954753D+00  .233312500000D+03  .417783493697D+00 -.837856328651D-08
     .401088135502D-09  .100000000000D+01  .182400000000D+04  .000000000000D+00
     .240000000000D+01  .000000000000D+00 -.107102096081D-07  .460000000000D+02
     .403206000000D+06  .400000000000D+01
 6 14 12 25 18  0  0.0  .349762849510D-04  .864019966684D-11  .000000000000D+00
     .370000000000D+02 -.441875000000D+02  .430410785480D-08  .202008290260D+01
    -.246427953243D-05  .532960402779D-03  .130552798510D-04  .515367304230D+04
     .410400000000D+06  .000000000000D+00  .819277257066D+00 -.186264514923D-08
     .961563311486D+00  .128031250000D+03  .233449118763D+01 -.785497004817D-08
     .223223583873D-09  .100000000000D+01  .182400000000D+04  .000000000000D+00
     .240000000000D+01  .000000000000D+00  .465661287308D-08  .370000000000D+02
     .403206000000D+06  .400000000000D+01
 7 14 12 25 18  0  0.0  .425549689680D-03  .352429196937D-11  .000000000000D+00
     .770000000000D+02  .775312500000D+02  .395802201036D-08 -.137899141996D+01
     .385381281376D-05  .795432075392D-02  .108536332846D-04  .515374518204D+04
     .410400000000D+06  .106170773506D-06 -.229530215044D+01 -.175088644028D-06
     .971891475090D+00  .177937500000D+03 -.275020239349D+01 -.768282002029D-08
    -.115361948145D-09  .100000000000D+01  .182400000000D+04  .000000000000D+00
     .240000000000D+01  .000000000000D+00 -.111758708954D-07  .770000000000D+02
     .403206000000D+06  .400000000000D+01
 8 14 12 25 18  0  0.0  .168620608747D-04  .113686837722D-12  .000000000000D+00
     .520000000000D+02  .720937500000D+02  .359836417203D-08 -.273182181237D+00
     .381655991077D-05  .147627409315D-01  .102575868368D-04  .515220349312D+04
     .410400000000D+06  .173225998878D-06 -.219121159678D+01  .169500708580D-06
     .995343173958D+00  .204250000000D+03 -.267804488672D+01 -.784889836669D-08
    -.792890169915D-10  .100000000000D+01  .182400000000D+04  .000000000000D+00
     .240000000000D+01  .630000000000D+02 -.465661287308D-08  .520000000000D+02
     .403206000000D+06  .400000000000D+01
 9 14 12 25 18  0  0.0 -.367248430848D-04 -.100044417195D-10  .000000000000D+00
     .240000000000D+02 -.205312500000D+02  .476841290925D-08  .692678788578D+00
    -.118836760521D-05  .232038786635D-03  .728107988834D-05  .515368162918D+04
     .410400000000D+06 -.614672899246D-07  .291309825286D+01  .242143869400D-07
     .958917754339D+00  .236062500000D+03  .250815887269D+01 -.817105464294D-08
    -.578595529398D-09  .100000000000D+01  .182400000000D+04  .000000000000D+00
     .240000000000D+01  .000000000000D+00  .465661287308D-09  .240000000000D+02
     .403206000000D+06  .400000000000D+01
10 14 12 25 18  0  0.0 -.155841466039D-03 -.170530256582D-11  .000000000000D+00
     .260000000000D+02  .443750000000D+02  .535808032841D-08  .245991408879D+01
     .209733843803D-05  .144577194005D-01  .679492950439D-05  .515363978195D+04
     .410400000000D+06  .372529029846D-08  .187946136514D+01 -.221654772758D-06
     .941083837908D+00  .237312500000D+03  .912329504266D+00 -.824748639806D-08
     .387158983869D-09  .100000000000D+01  .182400000000D+04  .000000000000D+00
     .340000000000D+01  .000000000000D+00 -.325962901115D-08  .260000000000D+02
     .403206000000D+06  .400000000000D+01
11 14 12 25 18  0  0.0 -.546171329916D-03 -.261479726760D-11  .000000000000D+00
     .480000000000D+02 -.821250000000D+02  .597382026216D-08 -.131207289932D+01
    -.403821468353D-05  .156162081985D-01  .102613121271D-04  .515372593498D+04
     .410400000000D+06  .372529029846D-08  .488323879118D+00  .420957803726D-06
     .892248491537D+00  .144218750000D+03  .137185793736D+01 -.877893710654D-08
     .167864135072D-10  .100000000000D+01  .182400000000D+04  .000000000000D+00
     .240000000000D+01  .000000000000D+00 -.121071934700D-07  .480000000000D+02
     .403206000000D+06  .400000000000D+01
12 14 12 25 18  0  0.0  .256306957453D-03  .295585778076D-11  .000000000000D+00
     .820000000000D+02  .668437500000D+02  .404874007485D-08 -.182249267409D+01
     .350363552570D-05  .508311449084D-02  .404566526413D-05  .515376028442D+04
     .410400000000D+06  .186264514923D-08 -.122875038714D+01 -.124797224998D-06
     .988761489428D+00  .316781250000D+03  .499299710203D+00 -.806569311135D-08
     .381801617856D-09  .100000000000D+01  .182400000000D+04  .000000000000D+00
     .240000000000D+01  .000000000000D+00 -.121071934700D-07  .820000000000D+02
     .403206000000D+06  .400000000000D+01
13 14 12 25 18  0  0.0 -.728024169803D-04 -.341060513165D-11  .000000000000D+00
     .610000000000D+02 -.139062500000D+02  .443911347832D-08 -.550866350960D+00
    -.674277544022D-06  .585203233641D-02  .812299549580D-05  .515588281822D+04
     .410400000000D+06 -.558793544769D-08  .302574805640D+01 -.149011611938D-07
     .975804580532D+00  .229156250000D+03  .220072322534D+01 -.805390690612D-08
    -.558594696283D-09  .100000000000D+01  .182400000000D+04  .000000000000D+00
     .240000000000D+01  .000000000000D+00 -.111758708954D-07  .610000000000D+02
     .403206000000D+06  .400000000000D+01
14 14 12 25 18  0  0.0  .103014986962D-03 -.352429196937D-11  .000000000000D+00
     .210000000000D+02 -.208125000000D+02  .462947855065D-08  .121010501199D+01
    -.112690031528D-05  .776007678360D-02  .747293233871D-05  .515376061630D+04
     .410400000000D+06 -.132247805595D-06  .299221569919D+01 -.111758708954D-07
     .968292502046D+00  .243031250000D+03 -.196533584575D+01 -.820569894316D-08
    -.594310469702D-09  .100000000000D+01  .182400000000D+04  .000000000000D+00
     .240000000000D+01  .000000000000D+00 -.931322574615D-08  .210000000000D+02
     .403206000000D+06  .400000000000D+01
15 14 12 25 18  0  0.0 -.222445931286D-03 -.227373675443D-11  .000000000000D+00
     .430000000000D+02 -.193437500000D+02  .553808782644D-08  .533455946387D+00
    -.864267349243D-06  .695659196936D-02  .612623989582D-05  .515355914497D+04
     .410400000000D+06  .577419996262D-07  .287325228647D+01  .119209289551D-06
     .934829396448D+00  .243156250000D+03  .344128055366D+00 -.863107380458D-08
    -.577524056195D-09  .100000000000D+01  .182400000000D+04  .000000000000D+00
     .240000000000D+01  .000000000000D+00 -.102445483208D-07  .430000000000D+02
     .403206000000D+06  .400000000000D+01
16 14 12 25 18  0  0.0 -.170344021171D-03  .306954461848D-11  .000000000000D+00
     .970000000000D+02  .588437500000D+02  .401838166744D-08  .231987604792D+01
     .305287539959D-05  .785140634980D-02  .357255339622D-05  .515372000694D+04
     .410400000000D+06 -.175088644028D-06 -.121010858444D+01  .596046447754D-07
     .989331774394D+00  .327125000000D+03  .229526205625D+00 -.807890794752D-08
     .271797035723D-09  .100000000000D+01  .182400000000D+04  .000000000000D+00
     .340000000000D+01  .000000000000D+00 -.102445483208D-07  .970000000000D+02
     .403206000000D+06  .400000000000D+01
17 14 12 25 18  0  0.0 -.146068166941D-03 -.227373675443D-11  .000000000000D+00
     .380000000000D+02 -.110781250000D+03  .443982779379D-08  .140076814053D+01
    -.576674938202D-05  .991561962292D-02  .570900738239D-05  .515369283485D+04
     .410400000000D+06 -.288709998131D-06 -.181176236455D+00  .931322574615D-08
     .971175998430D+00  .274156250000D+03 -.206629203745D+01 -.833677583161D-08
    -.232509684962D-09  .100000000000D+01  .182400000000D+04  .000000000000D+00
     .240000000000D+01  .000000000000D+00 -.107102096081D-07  .380000000000D+02
     .403206000000D+06  .400000000000D+01
18 14 12 25 18  0  0.0  .367637258023D-03  .261479726760D-11  .000000000000D+00
     .800000000000D+02  .405937500000D+02  .561380526609D-08  .288241436831D+01
     .202469527721D-05  .155381798977D-01  .692345201969D-05  .515374465179D+04
     .410400000000D+06  .875443220139D-07  .185359639565D+01 -.270083546638D-06
     .924851750942D+00  .223187500000D+03 -.199941642274D+01 -.830498879326D-08
     .347514475373D-09  .100000000000D+01  .182400000000D+04  .000000000000D+00
     .240000000000D+01  .000000000000D+00 -.111758708954D-07  .800000000000D+02
     .403206000000D+06  .400000000000D+01
19 14 12 25 18  0  0.0 -.493938103318D-03 -.159161572810D-11  .000000000000D+00
     .590000000000D+02 -.102875000000D+03  .444518515980D-08  .560552795308D+00
    -.535696744919D-05  .107700153021D-01  .559911131859D-05  .515368343353D+04
     .410400000000D+06  .000000000000D+00 -.131075710252D+00  .135973095894D-06
     .968275640453D+00  .276093750000D+03  .515645757024D+00 -.832034657583D-08
    -.258582199558D-09  .100000000000D+01  .182400000000D+04  .000000000000D+00
     .240000000000D+01  .000000000000D+00 -.149011611938D-07  .590000000000D+02
     .403206000000D+06  .400000000000D+01
20 14 12 25 18  0  0.0  .271330587566D-03  .420641299570D-11  .000000000000D+00
     .680000000000D+02  .517187500000D+02  .567987944692D-08 -.289968393630D+01
     .268220901489D-05  .580955774058D-02  .676698982716D-05  .515578357124D+04
     .410400000000D+06  .894069671631D-07  .180073611984D+01 -.242143869400D-07
     .925985622172D+00  .229281250000D+03  .123803699403D+01 -.852571227299D-08
     .417517391275D-09  .100000000000D+01  .182400000000D+04  .000000000000D+00
     .240000000000D+01  .000000000000D+00 -.838190317154D-08  .680000000000D+02
     .403206000000D+06  .400000000000D+01
